[{"OBJECT_NAME":"TIANMU-1 07","OBJECT_ID":"2023-101A","EPOCH":"2026-03-06T13:47:20.454720","MEAN_MOTION":15.29118809,"ECCENTRICITY":0.00046097,"INCLINATION":97.2728,"RA_OF_ASC_NODE":118.5929,"ARG_OF_PERICENTER":142.4105,"MEAN_ANOMALY":217.7458,"EPHEMERIS_TYPE":0,"CLASSIFICATION_TYPE":"U","NORAD_CAT_ID":57399,"ELEMENT_SET_NO":999,"REV_AT_EPOCH":14596,"BSTAR":0.00029794732,"MEAN_MOTION_DOT":8.352e-5,"MEAN_MOTION_DDOT":0},{"OBJECT_NAME":"STARLINK-32643","OBJECT_ID":"2024-231R","EPOCH":"2026-03-09T15:47:30.413760","MEAN_MOTION":15.30202978,"ECCENTRICITY":9.939e-5,"INCLINATION":53.1595,"RA_OF_ASC_NODE":206.9878,"ARG_OF_PERICENTER":59.5811,"MEAN_ANOMALY":300.5288,"EPHEMERIS_TYPE":0,"CLASSIFICATION_TYPE":"U","NORAD_CAT_ID":62233,"ELEMENT_SET_NO":999,"REV_AT_EPOCH":7193,"BSTAR":0.00091721789,"MEAN_MOTION_DOT":0.00026907,"MEAN_MOTION_DDOT":0}]
