TIANMU-1 07             
1 57399U 23101A   26065.57454230  .00008352  00000+0  29795-3 0  9991
2 57399  97.2728 118.5929 0004609 142.4105 217.7458 15.29118809145964
STARLINK-32643          
1 62233U 24231R   26068.65799090  .00026907  00000+0  91722-3 0  9992
2 62233  53.1595 206.9878 0000994  59.5811 300.5288 15.30202978 71930
